{"type": "FeatureCollection", "features": [ {"type": "Feature", "properties": {"norad_id": 66581, "name": "STARLINK-35744", "group": "last-30-days", "lat": -41.25001558307272, "lon": 71.59344645351057, "alt_km": 343.0034288585539, "timestamp": "2025-12-02T13:52:16.066189+00:00", "meta": {"OBJECT_NAME": "STARLINK-35744", "OBJECT_ID": "2025-268AA", "EPOCH": "2025-12-02T06:00:02.999808", "MEAN_MOTION": 15.7761704, "ECCENTRICITY": 0.00015648, "INCLINATION": 42.9976, "RA_OF_ASC_NODE": 183.3334, "ARG_OF_PERICENTER": 272.4032, "MEAN_ANOMALY": 278.9355, "EPHEMERIS_TYPE": 0, "CLASSIFICATION_TYPE": "U", "NORAD_CAT_ID": 66581, "ELEMENT_SET_NO": 999, "REV_AT_EPOCH": 293, "BSTAR": -0.012242232, "MEAN_MOTION_DOT": -0.01844078, "MEAN_MOTION_DDOT": 0}, "tle": {"line1": "1 66581U 25268AA  25336.25003472 -.01844078  00000+0 -12242-1 0  9996", "line2": "2 66581  42.9976 183.3334 0001564 272.4032 278.9355 15.77617040  2937"}}, "geometry": {"type": "Point", "coordinates": [71.59344645351057, -41.25001558307272]}}, {"type": "Feature", "properties": {"norad_id": 66582, "name": "STARLINK-35746", "group": "last-30-days", "lat": -41.686563938356066, "lon": 74.22836310959946, "alt_km": 343.2674176371447, "timestamp": "2025-12-02T13:52:16.066199+00:00", "meta": {"OBJECT_NAME": "STARLINK-35746", "OBJECT_ID": "2025-268AB", "EPOCH": "2025-12-02T06:00:02.999808", "MEAN_MOTION": 15.77470067, "ECCENTRICITY": 0.00014134, "INCLINATION": 42.9977, "RA_OF_ASC_NODE": 183.3282, "ARG_OF_PERICENTER": 275.2656, "MEAN_ANOMALY": 278.2116, "EPHEMERIS_TYPE": 0, "CLASSIFICATION_TYPE": "U", "NORAD_CAT_ID": 66582, "ELEMENT_SET_NO": 999, "REV_AT_EPOCH": 298, "BSTAR": -0.011319323, "MEAN_MOTION_DOT": -0.01711352, "MEAN_MOTION_DDOT": 0}, "tle": {"line1": "1 66582U 25268AB  25336.25003472 -.01711352  00000+0 -11319-1 0  9999", "line2": "2 66582  42.9977 183.3282 0001413 275.2656 278.2116 15.77470067  2986"}}, "geometry": {"type": "Point", "coordinates": [74.22836310959946, -41.686563938356066]}}, {"type": "Feature", "properties": {"norad_id": 66583, "name": "STARLINK-35941", "group": "last-30-days", "lat": -42.05449636422975, "lon": 76.83880414620866, "alt_km": 343.4309062739094, "timestamp": "2025-12-02T13:52:16.066211+00:00", "meta": {"OBJECT_NAME": "STARLINK-35941", "OBJECT_ID": "2025-268AC", "EPOCH": "2025-12-02T06:00:02.999808", "MEAN_MOTION": 15.77440608, "ECCENTRICITY": 0.00014643, "INCLINATION": 42.9978, "RA_OF_ASC_NODE": 183.323, "ARG_OF_PERICENTER": 269.5081, "MEAN_ANOMALY": 286.02, "EPHEMERIS_TYPE": 0, "CLASSIFICATION_TYPE": "U", "NORAD_CAT_ID": 66583, "ELEMENT_SET_NO": 999, "REV_AT_EPOCH": 298, "BSTAR": -0.011858767, "MEAN_MOTION_DOT": -0.01780884, "MEAN_MOTION_DDOT": 0}, "tle": {"line1": "1 66583U 25268AC  25336.25003472 -.01780884  00000+0 -11859-1 0  9995", "line2": "2 66583  42.9978 183.3230 0001464 269.5081 286.0200 15.77440608  2984"}}, "geometry": {"type": "Point", "coordinates": [76.83880414620866, -42.05449636422975]}}, {"type": "Feature", "properties": {"norad_id": 66584, "name": "STARLINK-35939", "group": "last-30-days", "lat": -42.35696912737519, "lon": 79.42312053819946, "alt_km": 343.53579796734357, "timestamp": "2025-12-02T13:52:16.066221+00:00", "meta": {"OBJECT_NAME": "STARLINK-35939", "OBJECT_ID": "2025-268AD", "EPOCH": "2025-12-02T06:00:02.999808", "MEAN_MOTION": 15.7741943, "ECCENTRICITY": 0.00014213, "INCLINATION": 42.9982, "RA_OF_ASC_NODE": 183.3185, "ARG_OF_PERICENTER": 268.5682, "MEAN_ANOMALY": 288.9315, "EPHEMERIS_TYPE": 0, "CLASSIFICATION_TYPE": "U", "NORAD_CAT_ID": 66584, "ELEMENT_SET_NO": 999, "REV_AT_EPOCH": 298, "BSTAR": -0.011921832, "MEAN_MOTION_DOT": -0.01787648, "MEAN_MOTION_DDOT": 0}, "tle": {"line1": "1 66584U 25268AD  25336.25003472 -.01787648  00000+0 -11922-1 0  9992", "line2": "2 66584  42.9982 183.3185 0001421 268.5682 288.9315 15.77419430  2985"}}, "geometry": {"type": "Point", "coordinates": [79.42312053819946, -42.35696912737519]}}, {"type": "Feature", "properties": {"norad_id": 66585, "name": "STARLINK-35963", "group": "last-30-days", "lat": -42.60288224433024, "lon": 82.06629737823285, "alt_km": 343.6379339147343, "timestamp": "2025-12-02T13:52:16.066230+00:00", "meta": {"OBJECT_NAME": "STARLINK-35963", "OBJECT_ID": "2025-268AE", "EPOCH": "2025-12-02T06:00:02.999808", "MEAN_MOTION": 15.77369151, "ECCENTRICITY": 0.00015122, "INCLINATION": 42.9978, "RA_OF_ASC_NODE": 183.3134, "ARG_OF_PERICENTER": 268.1854, "MEAN_ANOMALY": 291.3487, "EPHEMERIS_TYPE": 0, "CLASSIFICATION_TYPE": "U", "NORAD_CAT_ID": 66585, "ELEMENT_SET_NO": 999, "REV_AT_EPOCH": 298, "BSTAR": -0.012012465, "MEAN_MOTION_DOT": -0.01796047, "MEAN_MOTION_DDOT": 0}, "tle": {"line1": "1 66585U 25268AE  25336.25003472 -.01796047  00000+0 -12012-1 0  9997", "line2": "2 66585  42.9978 183.3134 0001512 268.1854 291.3487 15.77369151  2985"}}, "geometry": {"type": "Point", "coordinates": [82.06629737823285, -42.60288224433024]}}, {"type": "Feature", "properties": {"norad_id": 66586, "name": "TJS-21", "group": "last-30-days", "lat": 24.760904124622378, "lon": -165.783710865095, "alt_km": 36077.56348264263, "timestamp": "2025-12-02T13:52:16.066246+00:00", "meta": {"OBJECT_NAME": "TJS-21", "OBJECT_ID": "2025-269A", "EPOCH": "2025-11-22T00:38:56.616288", "MEAN_MOTION": 2.0099221, "ECCENTRICITY": 0.75179873, "INCLINATION": 51.0366, "RA_OF_ASC_NODE": 174.7096, "ARG_OF_PERICENTER": 225.0489, "MEAN_ANOMALY": 41.6572, "EPHEMERIS_TYPE": 0, "CLASSIFICATION_TYPE": "U", "NORAD_CAT_ID": 66586, "ELEMENT_SET_NO": 999, "REV_AT_EPOCH": 2, "BSTAR": 0.00053569978, "MEAN_MOTION_DOT": 3.197e-05, "MEAN_MOTION_DDOT": 0}, "tle": {"line1": "1 66586U 25269A   25326.02704417  .00003197  00000+0  53570-3 0  9990", "line2": "2 66586  51.0366 174.7096 7517987 225.0489  41.6572  2.00992210    24"}}, "geometry": {"type": "Point", "coordinates": [-165.783710865095, 24.760904124622378]}}, {"type": "Feature", "properties": {"norad_id": 66587, "name": "CZ-3B R/B", "group": "last-30-days", "lat": 28.739691699194147, "lon": -162.0078329759789, "alt_km": 38372.83664554371, "timestamp": "2025-12-02T13:52:16.066265+00:00", "meta": {"OBJECT_NAME": "CZ-3B R/B", "OBJECT_ID": "2025-269B", "EPOCH": "2025-11-23T12:20:01.405824", "MEAN_MOTION": 2.01516013, "ECCENTRICITY": 0.75253415, "INCLINATION": 51.3768, "RA_OF_ASC_NODE": 174.0599, "ARG_OF_PERICENTER": 225.2938, "MEAN_ANOMALY": 41.2116, "EPHEMERIS_TYPE": 0, "CLASSIFICATION_TYPE": "U", "NORAD_CAT_ID": 66587, "ELEMENT_SET_NO": 999, "REV_AT_EPOCH": 6, "BSTAR": 0.00049596604, "MEAN_MOTION_DOT": 0.0001032, "MEAN_MOTION_DDOT": -9.13844e-07}, "tle": {"line1": "1 66587U 25269B   25327.51390516  .00010320 -91384-6  49597-3 0  9990", "line2": "2 66587  51.3768 174.0599 7525341 225.2938  41.2116  2.01516013    67"}}, "geometry": {"type": "Point", "coordinates": [-162.0078329759789, 28.739691699194147]}}, {"type": "Feature", "properties": {"norad_id": 66588, "name": "STARLINK-36076", "group": "last-30-days", "lat": -5.727411934043171, "lon": -112.8277433710009, "alt_km": 329.91283702490546, "timestamp": "2025-12-02T13:52:16.066282+00:00", "meta": {"OBJECT_NAME": "STARLINK-36076", "OBJECT_ID": "2025-270A", "EPOCH": "2025-12-01T16:00:03.999744", "MEAN_MOTION": 15.83253097, "ECCENTRICITY": 0.00016612, "INCLINATION": 42.9983, "RA_OF_ASC_NODE": 258.9364, "ARG_OF_PERICENTER": 255.8292, "MEAN_ANOMALY": 300.3757, "EPHEMERIS_TYPE": 0, "CLASSIFICATION_TYPE": "U", "NORAD_CAT_ID": 66588, "ELEMENT_SET_NO": 999, "REV_AT_EPOCH": 262, "BSTAR": -0.007564055, "MEAN_MOTION_DOT": -0.0149203, "MEAN_MOTION_DDOT": 0}, "tle": {"line1": "1 66588U 25270A   25335.66671296 -.01492030  00000+0 -75641-2 0  9995", "line2": "2 66588  42.9983 258.9364 0001661 255.8292 300.3757 15.83253097  2622"}}, "geometry": {"type": "Point", "coordinates": [-112.8277433710009, -5.727411934043171]}}, {"type": "Feature", "properties": {"norad_id": 66589, "name": "STARLINK-35447", "group": "last-30-days", "lat": -3.210055246612131, "lon": -110.10860993857091, "alt_km": 329.56109908625876, "timestamp": "2025-12-02T13:52:16.066292+00:00", "meta": {"OBJECT_NAME": "STARLINK-35447", "OBJECT_ID": "2025-270B", "EPOCH": "2025-12-01T16:00:03.999744", "MEAN_MOTION": 15.83314069, "ECCENTRICITY": 0.00016346, "INCLINATION": 42.9982, "RA_OF_ASC_NODE": 258.9275, "ARG_OF_PERICENTER": 255.7976, "MEAN_ANOMALY": 303.9303, "EPHEMERIS_TYPE": 0, "CLASSIFICATION_TYPE": "U", "NORAD_CAT_ID": 66589, "ELEMENT_SET_NO": 999, "REV_AT_EPOCH": 273, "BSTAR": -0.0075699864, "MEAN_MOTION_DOT": -0.014969, "MEAN_MOTION_DDOT": 0}, "tle": {"line1": "1 66589U 25270B   25335.66671296 -.01496900  00000+0 -75700-2 0  9992", "line2": "2 66589  42.9982 258.9275 0001634 255.7976 303.9303 15.83314069  2736"}}, "geometry": {"type": "Point", "coordinates": [-110.10860993857091, -3.210055246612131]}}, {"type": "Feature", "properties": {"norad_id": 66590, "name": "STARLINK-35429", "group": "last-30-days", "lat": -4.533860015551421, "lon": -111.53466353423559, "alt_km": 329.55129540717553, "timestamp": "2025-12-02T13:52:16.066303+00:00", "meta": {"OBJECT_NAME": "STARLINK-35429", "OBJECT_ID": "2025-270C", "EPOCH": "2025-12-01T16:00:03.999744", "MEAN_MOTION": 15.83284356, "ECCENTRICITY": 0.0001609, "INCLINATION": 42.9983, "RA_OF_ASC_NODE": 258.9324, "ARG_OF_PERICENTER": 260.0941, "MEAN_ANOMALY": 297.7504, "EPHEMERIS_TYPE": 0, "CLASSIFICATION_TYPE": "U", "NORAD_CAT_ID": 66590, "ELEMENT_SET_NO": 999, "REV_AT_EPOCH": 273, "BSTAR": -0.0075245596, "MEAN_MOTION_DOT": -0.01487077, "MEAN_MOTION_DDOT": 0}, "tle": {"line1": "1 66590U 25270C   25335.66671296 -.01487077  00000+0 -75246-2 0  9994", "line2": "2 66590  42.9983 258.9324 0001609 260.0941 297.7504 15.83284356  2735"}}, "geometry": {"type": "Point", "coordinates": [-111.53466353423559, -4.533860015551421]}}]}